CUTE-1 (CO-55)          
1 27844U 03031E   26176.95866144  .00000278  00000+0  13913-3 0  9993
2 27844  98.6736 185.4073 0010067 153.3060 206.8639 14.24340671192925
CUBESAT XI-IV (CO-57)   
1 27848U 03031J   26176.95152158  .00000236  00000+0  12262-3 0  9990
2 27848  98.6767 185.1059 0009590 171.2746 188.8601 14.23625133192626
CUBESAT XI-V            
1 28895U 05043F   26177.71119501  .00001367  00000+0  22252-3 0  9994
2 28895  98.2993 333.5333 0014302 170.4305 189.7177 14.72655432103156
CUTE-1.7+APD II (CO-65) 
1 32785U 08021C   26177.66180106  .00004656  00000+0  29417-3 0  9993
2 32785  97.8273 159.2777 0008803   9.9021 350.2379 15.09537507986623
CANX-2                  
1 32790U 08021H   26177.45943483  .00003554  00000+0  25015-3 0  9997
2 32790  97.8636 157.4177 0010836  23.8347 336.3379 15.05681054986203
SEEDS II (CO-66)        
1 32791U 08021J   26177.47033514  .00018788  00000+0  59022-3 0  9995
2 32791  97.7516 175.8130 0000491 216.1627 143.9581 15.33053587988717
SWISSCUBE               
1 35932U 09051B   26177.47338387  .00000909  00000+0  18915-3 0  9997
2 35932  98.4029  85.5233 0006640 172.3713 187.7590 14.62497638890512
BEESAT-1                
1 35933U 09051C   26177.69301353  .00000752  00000+0  16076-3 0  9997
2 35933  98.3957  85.3622 0004848 183.3217 176.7952 14.61734342890572
ITUPSAT1                
1 35935U 09051E   26177.69222980  .00000700  00000+0  15443-3 0  9997
2 35935  98.4042  84.5432 0006751 199.9772 160.1164 14.60453570890127
TISAT 1                 
1 36799U 10035E   26177.58870590  .00020050  00000+0  64968-3 0  9990
2 36799  98.0702 124.9738 0002718 151.9791 208.1596 15.32050989869148
AEROCUBE 4.5A           
1 38767U 12048K   26176.90760364  .01044300  62559-3  12854-2 0  9997
2 38767  64.6191 354.7123 0018692 248.7404 111.1768 16.07344693374057
STRAND-1                
1 39090U 13009E   26177.73342244  .00000270  00000+0  10506-3 0  9999
2 39090  98.3924 357.7329 0008261 194.5261 165.5690 14.37168557698438
BRITE-AUSTRIA           
1 39091U 13009F   26177.75042693  .00000156  00000+0  67536-4 0  9996
2 39091  98.3998 356.9495 0009615 205.4279 154.6436 14.36545523698427
NEE-01 PEGASO           
1 39151U 13018B   26176.37138951  .00002452  00000+0  23719-3 0  9998
2 39151  98.1231 320.7925 0013540 133.4455 226.7893 14.93700411711928
POPACS 2                
1 39269U 13055E   26176.89930248  .00017101  00000+0  28728-3 0  9997
2 39269  80.9906 134.2187 0416476 165.8045 195.5318 14.91433941664519
POPACS 3                
1 39270U 13055F   26177.53263875  .00010697  00000+0  25217-3 0  9999
2 39270  81.0003 219.0538 0551198  41.5466 322.6276 14.56288219639910
ZACUBE-1 (TSHEPISOSAT)  
1 39417U 13066B   26177.47231079  .00003406  00000+0  26520-3 0  9996
2 39417  97.8048 139.8569 0042084 216.0502 143.7882 15.01236337682120
WNISAT-1                
1 39423U 13066H   26177.68149586  .00001060  00000+0  20106-3 0  9995
2 39423  97.7211 326.1644 0162553 201.5285 157.9028 14.58079558668117
TRITON-1                
1 39427U 13066M   26177.74996696  .00001398  00000+0  17238-3 0  9994
2 39427  97.8242  87.3394 0089118 202.2821 157.4510 14.81733254675501
GOMX-1                  
1 39430U 13066Q   26177.78699068  .00001913  00000+0  29101-3 0  9990
2 39430  97.6486  17.6438 0129859  47.0653 314.1362 14.69491428671326
CUBEBUG-2 (LO-74)       
1 39440U 13066AA  26177.77591205  .00004220  00000+0  39049-3 0  9990
2 39440  97.8903 126.7948 0057450 357.3533   2.7374 14.93836496678428
NEE-02 KRYSAOR          
1 39441U 13066AB  26177.76677493  .00002672  00000+0  29517-3 0  9992
2 39441  97.8892 116.9130 0067124  39.4303 321.1770 14.86659035677625
FUNCUBE-1 (AO-73)       
1 39444U 13066AE  26177.66821197  .00007529  00000+0  46531-3 0  9997
2 39444  97.8272 149.3122 0036613 168.7354 191.4703 15.09595526681092
UWE-3                   
1 39446U 13066AG  26176.83787144  .00004431  00000+0  38106-3 0  9998
2 39446  97.8708 132.9703 0046807 291.8607  67.7640 14.97092153678877
BRITE-CA1 (TORONTO)     
1 40020U 14033L   26177.61794559  .00000796  00000+0  12727-3 0  9999
2 40020  97.9749 306.3725 0077328 246.2869 113.0213 14.72690189643600
DUCHIFAT-1              
1 40021U 14033M   26177.60974735  .00111371  00000+0  10572-2 0  9992
2 40021  98.0448 238.1065 0001317 100.0937 260.0470 15.66536146657223
NANOSATC-BR1            
1 40024U 14033Q   26177.35208476  .00019164  00000+0  62707-3 0  9994
2 40024  98.0721 210.5531 0005038 140.2235 219.9374 15.31739274655383
QB50P1                  
1 40025U 14033R   26177.24478524  .00009878  00000+0  48340-3 0  9994
2 40025  98.0964 189.0261 0008742 183.1826 176.9352 15.18390211654409
QB50P2                  
1 40032U 14033Y   26177.74175566  .00007405  00000+0  39703-3 0  9994
2 40032  98.0751 175.2171 0008820 135.1022 225.0923 15.15275348654118
PERSEUS-M2              
1 40037U 14033AD  26177.76470034  .00001864  00000+0  17351-3 0  9997
2 40037  97.9972 128.5001 0009989 269.6686  90.3390 14.95543194652219
